[{"OBJECT_NAME":"STARLINK-31764","OBJECT_ID":"2024-082Y","EPOCH":"2026-03-09T05:30:12.005568","MEAN_MOTION":15.27582221,"ECCENTRICITY":8.592e-5,"INCLINATION":42.9998,"RA_OF_ASC_NODE":142.2225,"ARG_OF_PERICENTER":256.2359,"MEAN_ANOMALY":103.8397,"EPHEMERIS_TYPE":0,"CLASSIFICATION_TYPE":"U","NORAD_CAT_ID":59653,"ELEMENT_SET_NO":999,"REV_AT_EPOCH":10494,"BSTAR":-7.7020434e-5,"MEAN_MOTION_DOT":-2.381e-5,"MEAN_MOTION_DDOT":0},{"OBJECT_NAME":"CZ-4B DEB","OBJECT_ID":"2004-035N","EPOCH":"2026-03-08T07:19:22.074240","MEAN_MOTION":15.17712882,"ECCENTRICITY":0.00700404,"INCLINATION":97.867,"RA_OF_ASC_NODE":11.9774,"ARG_OF_PERICENTER":119.6038,"MEAN_ANOMALY":241.2197,"EPHEMERIS_TYPE":0,"CLASSIFICATION_TYPE":"U","NORAD_CAT_ID":35270,"ELEMENT_SET_NO":999,"REV_AT_EPOCH":13623,"BSTAR":0.0033008842,"MEAN_MOTION_DOT":0.00071474,"MEAN_MOTION_DDOT":0}]
